[{"OBJECT_NAME":"STARLINK-5160","OBJECT_ID":"2022-136AF","EPOCH":"2026-03-09T21:36:47.164896","MEAN_MOTION":15.08838164,"ECCENTRICITY":0.00015962,"INCLINATION":53.2184,"RA_OF_ASC_NODE":338.3363,"ARG_OF_PERICENTER":117.4702,"MEAN_ANOMALY":242.6453,"EPHEMERIS_TYPE":0,"CLASSIFICATION_TYPE":"U","NORAD_CAT_ID":54080,"ELEMENT_SET_NO":999,"REV_AT_EPOCH":18694,"BSTAR":-3.2370693e-5,"MEAN_MOTION_DOT":-8.03e-6,"MEAN_MOTION_DDOT":0},{"OBJECT_NAME":"ONEWEB-0618","OBJECT_ID":"2023-004V","EPOCH":"2026-03-09T21:27:12.326688","MEAN_MOTION":15.11974897,"ECCENTRICITY":0.00107842,"INCLINATION":86.9069,"RA_OF_ASC_NODE":217.8931,"ARG_OF_PERICENTER":307.7231,"MEAN_ANOMALY":52.303,"EPHEMERIS_TYPE":0,"CLASSIFICATION_TYPE":"U","NORAD_CAT_ID":55159,"ELEMENT_SET_NO":999,"REV_AT_EPOCH":16725,"BSTAR":0.00049587895,"MEAN_MOTION_DOT":8.547e-5,"MEAN_MOTION_DDOT":0}]
